{
  "type": "FeatureCollection",
  "features": [
    {
      "type": "Feature",
      "properties": {
        "norad_id": 27954,
        "name": "GALAXY 13 (HORIZONS-1)",
        "group": "intelsat",
        "lat": -0.8191238173658684,
        "lon": 26.27318172568565,
        "alt_km": 35791.966150652916,
        "timestamp": "2025-12-21T05:44:51.243370+00:00",
        "meta_object_name": "GALAXY 13 (HORIZONS-1)",
        "meta_object_id": "2003-044A",
        "meta_epoch": "2025-12-20T17:39:11.610720",
        "meta_mean_motion": 1.00269908,
        "meta_eccentricity": 0.0002382,
        "meta_inclination": 0.9571,
        "meta_ra_of_asc_node": 86.3686,
        "meta_arg_of_pericenter": 178.091,
        "meta_mean_anomaly": 299.8853,
        "meta_ephemeris_type": 0,
        "meta_classification_type": "U",
        "meta_norad_cat_id": 27954,
        "meta_element_set_no": 999,
        "meta_rev_at_epoch": 4478,
        "meta_bstar": 0,
        "meta_mean_motion_dot": 1.55e-06,
        "meta_mean_motion_ddot": 0,
        "tle_line1": "1 27954U 03044A   25354.73555105  .00000155  00000+0  00000+0 0  9997",
        "tle_line2": "2 27954   0.9571  86.3686 0002382 178.0910 299.8853  1.00269908 44781"
      },
      "geometry": {
        "type": "Point",
        "coordinates": [
          26.27318172568565,
          -0.8191238173658684
        ]
      }
    },
    {
      "type": "Feature",
      "properties": {
        "norad_id": 28358,
        "name": "INTELSAT 10-02",
        "group": "intelsat",
        "lat": 0.02084118889756535,
        "lon": 175.294748688572,
        "alt_km": 35789.366980731575,
        "timestamp": "2025-12-21T05:44:51.243393+00:00",
        "meta_object_name": "INTELSAT 10-02",
        "meta_object_id": "2004-022A",
        "meta_epoch": "2025-12-20T21:47:10.361184",
        "meta_mean_motion": 1.00271612,
        "meta_eccentricity": 0.00010544,
        "meta_inclination": 0.0213,
        "meta_ra_of_asc_node": 70.9299,
        "meta_arg_of_pericenter": 241.65,
        "meta_mean_anomaly": 102.9846,
        "meta_ephemeris_type": 0,
        "meta_classification_type": "U",
        "meta_norad_cat_id": 28358,
        "meta_element_set_no": 999,
        "meta_rev_at_epoch": 7876,
        "meta_bstar": 0,
        "meta_mean_motion_dot": 1.3e-07,
        "meta_mean_motion_ddot": 0,
        "tle_line1": "1 28358U 04022A   25354.90775881  .00000013  00000+0  00000+0 0  9990",
        "tle_line2": "2 28358   0.0213  70.9299 0001054 241.6500 102.9846  1.00271612 78766"
      },
      "geometry": {
        "type": "Point",
        "coordinates": [
          175.294748688572,
          0.02084118889756535
        ]
      }
    },
    {
      "type": "Feature",
      "properties": {
        "norad_id": 28626,
        "name": "XM-3 (RHYTHM)",
        "group": "intelsat",
        "lat": 0.014570807775537308,
        "lon": -109.85206040479153,
        "alt_km": 36163.57648306094,
        "timestamp": "2025-12-21T05:44:51.243406+00:00",
        "meta_object_name": "XM-3 (RHYTHM)",
        "meta_object_id": "2005-008A",
        "meta_epoch": "2025-12-20T22:08:53.280960",
        "meta_mean_motion": 0.98949902,
        "meta_eccentricity": 0.00019564,
        "meta_inclination": 0.1948,
        "meta_ra_of_asc_node": 82.0001,
        "meta_arg_of_pericenter": 277.9025,
        "meta_mean_anomaly": 137.4781,
        "meta_ephemeris_type": 0,
        "meta_classification_type": "U",
        "meta_norad_cat_id": 28626,
        "meta_element_set_no": 999,
        "meta_rev_at_epoch": 4083,
        "meta_bstar": 0,
        "meta_mean_motion_dot": 8e-07,
        "meta_mean_motion_ddot": 0,
        "tle_line1": "1 28626U 05008A   25354.92283890  .00000080  00000+0  00000+0 0  9993",
        "tle_line2": "2 28626   0.1948  82.0001 0001956 277.9025 137.4781  0.98949902 40838"
      },
      "geometry": {
        "type": "Point",
        "coordinates": [
          -109.85206040479153,
          0.014570807775537308
        ]
      }
    },
    {
      "type": "Feature",
      "properties": {
        "norad_id": 28659,
        "name": "DIRECTV 8",
        "group": "intelsat",
        "lat": 0.038344108561405445,
        "lon": 57.2386233408042,
        "alt_km": 35795.32408080784,
        "timestamp": "2025-12-21T05:44:51.243419+00:00",
        "meta_object_name": "DIRECTV 8",
        "meta_object_id": "2005-019A",
        "meta_epoch": "2025-12-20T21:13:28.589088",
        "meta_mean_motion": 1.00270149,
        "meta_eccentricity": 0.00028918,
        "meta_inclination": 0.0248,
        "meta_ra_of_asc_node": 14.0351,
        "meta_arg_of_pericenter": 267.3604,
        "meta_mean_anomaly": 7.6363,
        "meta_ephemeris_type": 0,
        "meta_classification_type": "U",
        "meta_norad_cat_id": 28659,
        "meta_element_set_no": 999,
        "meta_rev_at_epoch": 7528,
        "meta_bstar": 0,
        "meta_mean_motion_dot": 0,
        "meta_mean_motion_ddot": 0,
        "tle_line1": "1 28659U 05019A   25354.88435867  .00000000  00000+0  00000+0 0  9991",
        "tle_line2": "2 28659   0.0248  14.0351 0002891 267.3604   7.6363  1.00270149 75289"
      },
      "geometry": {
        "type": "Point",
        "coordinates": [
          57.2386233408042,
          0.038344108561405445
        ]
      }
    },
    {
      "type": "Feature",
      "properties": {
        "norad_id": 28702,
        "name": "GALAXY 28 (G-28)",
        "group": "intelsat",
        "lat": 0.3434111209584651,
        "lon": 87.57985084760189,
        "alt_km": 35798.65774740866,
        "timestamp": "2025-12-21T05:44:51.243431+00:00",
        "meta_object_name": "GALAXY 28 (G-28)",
        "meta_object_id": "2005-022A",
        "meta_epoch": "2025-12-20T00:49:30.482112",
        "meta_mean_motion": 1.00271047,
        "meta_eccentricity": 0.00029384,
        "meta_inclination": 2.8382,
        "meta_ra_of_asc_node": 81.1982,
        "meta_arg_of_pericenter": 194.0723,
        "meta_mean_anomaly": 97.2981,
        "meta_ephemeris_type": 0,
        "meta_classification_type": "U",
        "meta_norad_cat_id": 28702,
        "meta_element_set_no": 999,
        "meta_rev_at_epoch": 5017,
        "meta_bstar": 0,
        "meta_mean_motion_dot": -1.65e-06,
        "meta_mean_motion_ddot": 0,
        "tle_line1": "1 28702U 05022A   25354.03438058 -.00000165  00000+0  00000+0 0  9999",
        "tle_line2": "2 28702   2.8382  81.1982 0002938 194.0723  97.2981  1.00271047 50172"
      },
      "geometry": {
        "type": "Point",
        "coordinates": [
          87.57985084760189,
          0.3434111209584651
        ]
      }
    },
    {
      "type": "Feature",
      "properties": {
        "norad_id": 29236,
        "name": "GALAXY 16 (G-16)",
        "group": "intelsat",
        "lat": 0.0036772346943381535,
        "lon": 77.26707940061918,
        "alt_km": 35796.451350359894,
        "timestamp": "2025-12-21T05:44:51.243443+00:00",
        "meta_object_name": "GALAXY 16 (G-16)",
        "meta_object_id": "2006-023A",
        "meta_epoch": "2025-12-20T21:19:13.039104",
        "meta_mean_motion": 1.0027104,
        "meta_eccentricity": 0.00024654,
        "meta_inclination": 0.0071,
        "meta_ra_of_asc_node": 264.2554,
        "meta_arg_of_pericenter": 6.7479,
        "meta_mean_anomaly": 39.5114,
        "meta_ephemeris_type": 0,
        "meta_classification_type": "U",
        "meta_norad_cat_id": 29236,
        "meta_element_set_no": 999,
        "meta_rev_at_epoch": 7118,
        "meta_bstar": 0,
        "meta_mean_motion_dot": -1.04e-06,
        "meta_mean_motion_ddot": 0,
        "tle_line1": "1 29236U 06023A   25354.88834536 -.00000104  00000+0  00000+0 0  9991",
        "tle_line2": "2 29236   0.0071 264.2554 0002465   6.7479  39.5114  1.00271040 71185"
      },
      "geometry": {
        "type": "Point",
        "coordinates": [
          77.26707940061918,
          0.0036772346943381535
        ]
      }
    },
    {
      "type": "Feature",
      "properties": {
        "norad_id": 29494,
        "name": "DIRECTV 9S",
        "group": "intelsat",
        "lat": -0.24910350038231174,
        "lon": 75.07331380150445,
        "alt_km": 35797.37514303182,
        "timestamp": "2025-12-21T05:44:51.243455+00:00",
        "meta_object_name": "DIRECTV 9S",
        "meta_object_id": "2006-043A",
        "meta_epoch": "2025-12-20T21:18:35.599392",
        "meta_mean_motion": 1.00271576,
        "meta_eccentricity": 0.00028252,
        "meta_inclination": 1.9599,
        "meta_ra_of_asc_node": 83.1277,
        "meta_arg_of_pericenter": 192.7992,
        "meta_mean_anomaly": 32.2256,
        "meta_ephemeris_type": 0,
        "meta_classification_type": "U",
        "meta_norad_cat_id": 29494,
        "meta_element_set_no": 999,
        "meta_rev_at_epoch": 4959,
        "meta_bstar": 0,
        "meta_mean_motion_dot": -9.2e-07,
        "meta_mean_motion_ddot": 0,
        "tle_line1": "1 29494U 06043A   25354.88791203 -.00000092  00000+0  00000+0 0  9998",
        "tle_line2": "2 29494   1.9599  83.1277 0002825 192.7992  32.2256  1.00271576 49593"
      },
      "geometry": {
        "type": "Point",
        "coordinates": [
          75.07331380150445,
          -0.24910350038231174
        ]
      }
    }
  ]
}